[{"OBJECT_NAME":"CORVUS BC4","OBJECT_ID":"2018-099K","EPOCH":"2026-03-09T15:49:18.108768","MEAN_MOTION":15.1161571,"ECCENTRICITY":0.00080458,"INCLINATION":97.4206,"RA_OF_ASC_NODE":114.5457,"ARG_OF_PERICENTER":356.5821,"MEAN_ANOMALY":3.5354,"EPHEMERIS_TYPE":0,"CLASSIFICATION_TYPE":"U","NORAD_CAT_ID":43767,"ELEMENT_SET_NO":999,"REV_AT_EPOCH":39736,"BSTAR":0.00033979895,"MEAN_MOTION_DOT":5.714e-5,"MEAN_MOTION_DDOT":0},{"OBJECT_NAME":"STARLINK-3975","OBJECT_ID":"2022-052Y","EPOCH":"2026-03-09T20:53:41.973216","MEAN_MOTION":15.08853082,"ECCENTRICITY":0.00012146,"INCLINATION":53.2156,"RA_OF_ASC_NODE":283.3126,"ARG_OF_PERICENTER":89.4731,"MEAN_ANOMALY":270.64,"EPHEMERIS_TYPE":0,"CLASSIFICATION_TYPE":"U","NORAD_CAT_ID":52620,"ELEMENT_SET_NO":999,"REV_AT_EPOCH":21080,"BSTAR":0.00011227624,"MEAN_MOTION_DOT":1.5e-5,"MEAN_MOTION_DDOT":0}]
